OBJECT BN               
1 49573U 82092BN  21334.11549296  .00018971  00000+0  41383-3 0  9996
2 49573  82.5640 108.3745 0086919 126.8248 234.1012 15.40046147  1902
OBJECT BP               
1 49574U 82092BP  21334.07833353  .00042027  00000+0  16069-2 0  9993
2 49574  81.7381 104.8203 0070100  72.1912 288.6954 15.24085391  1930
OBJECT BQ               
1 49575U 82092BQ  21333.99193515  .00006961  00000+0  45193-3 0  9991
2 49575  81.9444 106.4950 0151551   7.3892 352.9510 14.98807511  1936
OBJECT BR               
1 49576U 82092BR  21334.04385797  .00009755  00000+0  34834-3 0  9998
2 49576  82.5989 108.9043 0056014 312.6133  47.0389 15.27179854  2006
OBJECT BS               
1 49577U 82092BS  21334.11607766  .00033648  00000+0  16573-2 0  9997
2 49577  82.8536 110.3579 0099330  48.8691 312.1061 15.13486515  1983
OBJECT BT               
1 49578U 82092BT  21334.07562312  .00019759  00000+0  10280-2 0  9996
2 49578  82.6105 109.3067 0110545 349.5088  10.3834 15.10672904  1900
OBJECT BU               
1 49579U 82092BU  21334.10431534  .00017679  00000+0  64414-3 0  9990
2 49579  82.7723 109.6660 0023290  32.9397 327.3288 15.27806715  2076
OBJECT BV               
1 49580U 82092BV  21334.12797207  .00392265  00000+0  47628-2 0  9990
2 49580  82.0636 106.2924 0248382  98.9414 264.0029 15.30875811  1912
OBJECT BW               
1 49581U 82092BW  21334.12091674  .01789035  18361-2  34084-2 0  9996
2 49581  82.8329 108.8306 0076151 180.3925 179.7307 15.95686020  2069
OBJECT BX               
1 49582U 82092BX  21334.10895256  .00010718  00000+0  76366-3 0  9995
2 49582  82.9406 111.3186 0218064  44.9499 316.9142 14.87198620  2015
OBJECT BY               
1 49583U 82092BY  21334.10915617  .00191523  00000+0  21318-2 0  9990
2 49583  82.4673 107.5920 0100162 154.0588 206.5739 15.56235519  1900
OBJECT BZ               
1 49584U 82092BZ  21334.11723258  .00031127  00000+0  19721-2 0  9998
2 49584  82.0476 106.8437 0149038  35.7669 325.3423 14.99967187  2059
OBJECT CA               
1 49585U 82092CA  21334.09837417  .00575624  93364-4  35465-2 0  9997
2 49585  82.2293 106.4359 0152843 124.2884 237.2954 15.62466054  2024
OBJECT CB               
1 49586U 82092CB  21334.07888576  .00073635  00000+0  15276-2 0  9991
2 49586  82.7100 109.0382 0041604 188.4597 171.5956 15.44475205  2038
OBJECT CC               
1 49587U 82092CC  21334.12970437  .00014545  00000+0  78481-3 0  9999
2 49587  82.3055 108.2178 0248468  65.3820 297.3062 14.91836666  1876
OBJECT CD               
1 49588U 82092CD  21334.03734181  .00032912  00000+0  11866-2 0  9995
2 49588  82.5752 108.7884 0022622  12.6934 347.4870 15.28137138  2239
OBJECT CE               
1 49589U 82092CE  21334.00109455  .00638396  00000+0  10269-1 0  9996
2 49589  82.3616 107.5775 0096411  95.2942 265.9316 15.45936723  1915
OBJECT CF               
1 49590U 82092CF  21334.09901164  .00002951  00000+0  16118-3 0  9997
2 49590  82.5460 109.0364 0117132 355.4225   4.5919 15.08111581  1996
OBJECT CG               
1 49591U 82092CG  21333.97189959  .00004566  00000+0  32338-3 0  9990
2 49591  82.6022 109.8591 0217406  45.9038 315.9841 14.87350668  1057
OBJECT CH               
1 49592U 82092CH  21334.07541993  .00028170  00000+0  10267-2 0  9996
2 49592  82.5911 108.9114 0090393 312.6126  46.7512 15.24175907  2026
OBJECT CJ               
1 49593U 82092CJ  21334.12499047  .00008414  00000+0  63013-3 0  9992
2 49593  82.4330 108.9663 0217333  39.9184 321.7784 14.85571711  1898
OBJECT CK               
1 49594U 82092CK  21334.08454513  .00061739  00000+0  16868-2 0  9991
2 49594  82.5212 108.2853 0013246 224.7391 135.2786 15.37055052  1998
OBJECT CL               
1 49595U 82092CL  21334.12458503  .00004393  00000+0  44467-3 0  9990
2 49595  82.4273 109.5187 0323755  18.7171 342.5611 14.58873252  1852
OBJECT CM               
1 49596U 82092CM  21334.09016531  .00126727  00000+0  18311-2 0  9992
2 49596  82.5349 108.0486 0093018 243.7377 115.4295 15.50533660  2112
OBJECT CP               
1 49598U 82092CP  21334.06752552  .00639727  00000+0  87698-2 0  9994
2 49598  82.0638 106.6910 0290278  87.7679 275.6758 15.20010089  1961
OBJECT CQ               
1 49599U 82092CQ  21334.03749477  .00019265  00000+0  12504-2 0  9997
2 49599  82.5328 109.3323 0188259  48.0192 313.6891 14.94429376  1869
OBJECT CR               
1 49600U 82092CR  21334.09772940  .00023205  00000+0  13208-2 0  9998
2 49600  82.5393 109.5682 0300372 337.5400  21.2882 14.81759402  1914
OBJECT CS               
1 49601U 82092CS  21334.11353834  .00012216  00000+0  76564-3 0  9994
2 49601  82.4911 108.9345 0151525 359.1285   0.9649 15.00082589  1916
OBJECT CT               
1 49602U 82092CT  21334.11203091  .00006386  00000+0  32224-3 0  9990
2 49602  82.6100 109.1904 0087818 359.1838   0.9235 15.13532921  1870
OBJECT CU               
1 49603U 82092CU  21334.09462291  .00779061  00000+0  15975-1 0  9996
2 49603  82.4976 108.2627 0037610  63.4903 297.0193 15.42914414  2095
OBJECT CV               
1 49604U 82092CV  21334.09285664  .00001919  00000+0  92947-4 0  9991
2 49604  82.5201 108.7396 0074745  16.0466 344.3107 15.15413254  1876
OBJECT CW               
1 49605U 82092CW  21334.10381835  .00009213  00000+0  48584-3 0  9993
2 49605  82.5449 109.0383 0135655 342.4330  17.2228 15.07699470  1928
OBJECT CX               
1 49606U 82092CX  21334.04014139  .00005959  00000+0  21252-3 0  9993
2 49606  82.5951 108.8839 0048786 314.4275  45.2975 15.27518045  1868
OBJECT CY               
1 49607U 82092CY  21334.08086230  .00005866  00000+0  57178-3 0  9992
2 49607  82.8883 111.5857 0305507  27.6579 334.0502 14.63169970  1935
OBJECT CZ               
1 49608U 82092CZ  21334.07824262  .00016865  00000+0  79085-3 0  9999
2 49608  82.2130 107.2636 0074272  40.5876 320.0860 15.17067500  2038
OBJECT DA               
1 49609U 82092DA  21334.01829335  .00004223  00000+0  22573-3 0  9995
2 49609  82.5606 109.1463 0110565 354.3881   5.6099 15.09577018  2016
OBJECT DB               
1 49610U 82092DB  21333.87947920  .00291414  00000+0  10843-1 0  9996
2 49610  82.8129 111.8005 0511332 336.2845  21.5509 14.53506558  1896
OBJECT DC               
1 49611U 82092DC  21334.11067397  .00105366  00000+0  14416-1 0  9996
2 49611  82.2394 109.6230 0516369  20.5995 341.5183 14.14739717  1888
OBJECT DD               
1 49612U 82092DD  21334.00332479  .00008912  00000+0  58397-3 0  9998
2 49612  82.9458 111.3566 0211040  50.9397 311.0390 14.90996344  1843
OBJECT DE               
1 49613U 82092DE  21334.09494185  .00036920  00000+0  12919-2 0  9990
2 49613  82.4976 108.3379 0026866 333.7307  26.2568 15.28998548  2040
OBJECT DF               
1 49614U 82092DF  21334.08920429  .01444442  76531-3  52306-2 0  9998
2 49614  82.0504 105.5574 0156793 109.9976 251.7008 15.71914609  1988
OBJECT DG               
1 49615U 82092DG  21334.00143545  .02890566  68261-2  85993-2 0  9998
2 49615  82.5316 107.6275 0045334 200.8497 159.3145 15.92296359  1852
OBJECT DH               
1 49616U 82092DH  21334.12858983  .00413899  00000+0  66445-2 0  9994
2 49616  82.4982 107.9428 0055956 130.6931 229.9202 15.49907081  1938
OBJECT DJ               
1 49617U 82092DJ  21333.97785884  .00071171  00000+0  25500-2 0  9996
2 49617  82.5287 108.6431 0029993 350.6566   9.4111 15.28013646  1785
OBJECT DK               
1 49618U 82092DK  21333.96156333  .02132075 -11512-5  19685-2 0  9994
2 49618  82.3729 106.6135 0102952 233.2680 125.8520 16.01868934  2131
OBJECT DS               
1 49625U 82092DS  21321.90996101  .02330901  00000+0  29380+0 0  9999
2 49625  81.7457 118.7197 0439923  54.4469 310.3410 14.28942965    19
